ONEWEB-0534             
1 55797U 23029B   26195.72935436  .00000054  00000+0  10030-3 0  9996
2 55797  87.9176 268.9797 0002018 102.3486 257.7873 13.20773101164786
ONEWEB-0556             
1 55798U 23029C   26195.66035367 -.00001872  00000+0 -46367-2 0  9996
2 55798  87.9181 268.9912 0001241 118.8638 241.2620 13.20793819164775
ONEWEB-0562             
1 55799U 23029D   26195.72263506  .00000014  00000+0  37127-5 0  9994
2 55799  87.9175 268.9608 0001337  83.1470 276.9815 13.20771969164789
ONEWEB-0563             
1 55800U 23029E   26195.71757784  .00000036  00000+0  56556-4 0  9992
2 55800  87.9175 268.9920 0002077 105.4756 254.6607 13.20770082164772
ONEWEB-0564             
1 55801U 23029F   26195.93812708  .00000076  00000+0  15490-3 0  9990
2 55801  87.9177 268.9217 0001770  90.7504 269.3832 13.20772508164813
ONEWEB-0638             
1 55802U 23029G   26195.79547331 -.00000012  00000+0 -66444-4 0  9990
2 55802  87.8959 284.2487 0001449 102.6483 257.4809 13.14504184163023
ONEWEB-0639             
1 55803U 23029H   26195.78084795  .00000053  00000+0  10013-3 0  9993
2 55803  87.9185 299.4812 0002618 120.1802 239.9590 13.19726342162540
ONEWEB-0640             
1 55804U 23029J   26195.80498780 -.00000140  00000+0 -41334-3 0  9999
2 55804  87.8961 284.2376 0001578 117.6166 242.5125 13.14502500163040
ONEWEB-0641             
1 55805U 23029K   26195.85192912  .00000035  00000+0  56058-4 0  9994
2 55805  87.9193 299.4579 0002149 104.7073 255.4298 13.19726759162560
ONEWEB-0642             
1 55806U 23029L   26195.77138831  .00000055  00000+0  10447-3 0  9999
2 55806  87.9187 299.4841 0002665 114.4123 245.7289 13.19726366162547
ONEWEB-0643             
1 55807U 23029M   26195.77486606  .00000241  00000+0  61431-3 0  9992
2 55807  87.8957 284.2310 0002657 107.6374 252.5046 13.14502309163012
ONEWEB-0644             
1 55808U 23029N   26195.84246824  .00000050  00000+0  92490-4 0  9995
2 55808  87.9184 299.4707 0002302 107.0490 253.0895 13.19725772162556
ONEWEB-0645             
1 55809U 23029P   26195.78876271  .00000019  00000+0  15420-4 0  9997
2 55809  87.9184 299.4788 0002023 115.3898 244.7444 13.19725789162544
ONEWEB-0646             
1 55810U 23029Q   26195.80612744  .00000043  00000+0  75563-4 0  9996
2 55810  87.9186 299.4754 0002258 105.8251 254.3131 13.19726847162533
ONEWEB-0648             
1 55811U 23029R   26195.74314128 -.00000117  00000+0 -35062-3 0  9998
2 55811  87.8967 284.2135 0002368 123.0802 237.0556 13.14503406163013
ONEWEB-0649             
1 55812U 23029S   26195.83139445 -.00000035  00000+0 -11897-3 0  9995
2 55812  87.9184 299.4684 0002043 108.7187 251.4168 13.19726680162574
ONEWEB-0650             
1 55813U 23029T   26195.82666020 -.00000039  00000+0 -12908-3 0  9997
2 55813  87.9183 299.4716 0002480 112.3410 247.7986 13.19726251162542
ONEWEB-0652             
1 55814U 23029U   26195.80023141 -.00000118  00000+0 -35322-3 0  9990
2 55814  87.8970 284.2088 0002004  95.4167 264.7192 13.14502383162992
ONEWEB-0653             
1 55815U 23029V   26195.78437239  .00000124  00000+0  29916-3 0  9992
2 55815  87.8972 284.2098 0001972 100.5037 259.6315 13.14501342163022
ONEWEB-0654             
1 55816U 23029W   26195.70349576  .00000200  00000+0  50523-3 0  9994
2 55816  87.8969 284.2224 0001801  91.1034 269.0302 13.14502214163034
ONEWEB-0656             
1 55817U 23029X   26195.70411407  .00000068  00000+0  13513-3 0  9998
2 55817  87.9188 268.9477 0001895  87.1557 272.9793 13.20769868164783
ONEWEB-0657             
1 55818U 23029Y   26195.82195107 -.00000073  00000+0 -21468-3 0  9994
2 55818  87.9184 299.4714 0002223  79.3166 280.8217 13.19727113162555
ONEWEB-0658             
1 55819U 23029Z   26195.81719522 -.00000037  00000+0 -12560-3 0  9990
2 55819  87.9193 299.4502 0002355 108.0811 252.0579 13.19726025162568
ONEWEB-0660             
1 55820U 23029AA  26195.75741158  .00000067  00000+0  14736-3 0  9993
2 55820  87.8974 284.2072 0001910 109.4414 250.6922 13.14502401163023
ONEWEB-0661             
1 55821U 23029AB  26195.79230621  .00000100  00000+0  23596-3 0  9998
2 55821  87.8962 284.2404 0001771 107.8138 252.3185 13.14502753163019
ONEWEB-0662             
1 55822U 23029AC  26195.75107682 -.00000018  00000+0 -82417-4 0  9993
2 55822  87.8956 284.2548 0001907 109.9861 250.1474 13.14502055163055
ONEWEB-0663             
1 55823U 23029AD  26195.73576398 -.00000041  00000+0 -13293-3 0  9997
2 55823  87.9190 269.0123 0002186 110.7939 249.3429 13.20871227164781
ONEWEB-0664             
1 55824U 23029AE  26195.76641599  .00000204  00000+0  46906-3 0  9993
2 55824  87.9175 268.9839 0001549 103.5670 256.5637 13.20773038164783
ONEWEB-0665             
1 55825U 23029AF  26195.78913643  .00000119  00000+0  28744-3 0  9993
2 55825  87.8962 284.2220 0002003 110.5090 249.6255 13.14501791163036
ONEWEB-0666             
1 55826U 23029AG  26195.68390575 -.00002259  00000+0 -55884-2 0  9999
2 55826  87.9177 268.9906 0002491  83.6347 276.5070 13.20785609164788
